[{"OBJECT_NAME":"STARLINK-34988","OBJECT_ID":"2025-194V","EPOCH":"2026-03-09T14:43:43.705056","MEAN_MOTION":15.01260784,"ECCENTRICITY":0.0002492,"INCLINATION":97.6042,"RA_OF_ASC_NODE":285.4211,"ARG_OF_PERICENTER":53.9876,"MEAN_ANOMALY":306.1579,"EPHEMERIS_TYPE":0,"CLASSIFICATION_TYPE":"U","NORAD_CAT_ID":65453,"ELEMENT_SET_NO":999,"REV_AT_EPOCH":2970,"BSTAR":0.00019946,"MEAN_MOTION_DOT":2.505e-5,"MEAN_MOTION_DDOT":0},{"OBJECT_NAME":"PEGASUS DEB","OBJECT_ID":"1994-029AFE","EPOCH":"2026-03-09T22:01:13.596672","MEAN_MOTION":14.67197331,"ECCENTRICITY":0.01795257,"INCLINATION":81.944,"RA_OF_ASC_NODE":137.8868,"ARG_OF_PERICENTER":239.0776,"MEAN_ANOMALY":119.2676,"EPHEMERIS_TYPE":0,"CLASSIFICATION_TYPE":"U","NORAD_CAT_ID":39319,"ELEMENT_SET_NO":999,"REV_AT_EPOCH":26377,"BSTAR":0.00029247934,"MEAN_MOTION_DOT":2.119e-5,"MEAN_MOTION_DDOT":0}]
